LEMUR-2-PETERG          
1 42841U 17042S   26068.48235713  .00023240  00000+0  81076-3 0  9993
2 42841  97.3980 253.6596 0003700 341.6938  18.4169 15.29611459473171
STARLINK-36547          
1 67520U 26012AD  26068.09471223  .00035030  00000+0  12758-2 0  9996
2 67520  43.0035 317.5088 0002611 260.6726  99.3831 15.27595629  7672
