[{"OBJECT_NAME":"LEMUR-2-PETERG","OBJECT_ID":"2017-042S","EPOCH":"2026-03-09T11:34:35.656032","MEAN_MOTION":15.29611459,"ECCENTRICITY":0.00037,"INCLINATION":97.398,"RA_OF_ASC_NODE":253.6596,"ARG_OF_PERICENTER":341.6938,"MEAN_ANOMALY":18.4169,"EPHEMERIS_TYPE":0,"CLASSIFICATION_TYPE":"U","NORAD_CAT_ID":42841,"ELEMENT_SET_NO":999,"REV_AT_EPOCH":47317,"BSTAR":0.00081076471,"MEAN_MOTION_DOT":0.0002324,"MEAN_MOTION_DDOT":0},{"OBJECT_NAME":"STARLINK-36547","OBJECT_ID":"2026-012AD","EPOCH":"2026-03-09T02:16:23.136672","MEAN_MOTION":15.27595629,"ECCENTRICITY":0.00026118,"INCLINATION":43.0035,"RA_OF_ASC_NODE":317.5088,"ARG_OF_PERICENTER":260.6726,"MEAN_ANOMALY":99.3831,"EPHEMERIS_TYPE":0,"CLASSIFICATION_TYPE":"U","NORAD_CAT_ID":67520,"ELEMENT_SET_NO":999,"REV_AT_EPOCH":767,"BSTAR":0.0012758028,"MEAN_MOTION_DOT":0.0003503,"MEAN_MOTION_DDOT":0}]
